{
  "type": "FeatureCollection",
  "features": [
    {
      "type": "Feature",
      "properties": {
        "norad_id": 66656,
        "name": "2025-274G",
        "group": "last-30-days",
        "lat": 3.8196503827001735,
        "lon": -91.44723292896381,
        "alt_km": 593.1095905390148,
        "timestamp": "2025-12-07T18:50:15.515610+00:00",
        "meta_object_name": "2025-274G",
        "meta_object_id": "2025-274G",
        "meta_epoch": "2025-12-06T18:40:49.621440",
        "meta_mean_motion": 14.92219802,
        "meta_eccentricity": 0.00124648,
        "meta_inclination": 97.7391,
        "meta_ra_of_asc_node": 268.0842,
        "meta_arg_of_pericenter": 279.917,
        "meta_mean_anomaly": 80.0642,
        "meta_ephemeris_type": 0,
        "meta_classification_type": "U",
        "meta_norad_cat_id": 66656,
        "meta_element_set_no": 999,
        "meta_rev_at_epoch": 151,
        "meta_bstar": 0.00049696804,
        "meta_mean_motion_dot": 5.017e-05,
        "meta_mean_motion_ddot": 0,
        "tle_line1": "1 66656U 25274G   25340.77835210  .00005017  00000+0  49697-3 0  9996",
        "tle_line2": "2 66656  97.7391 268.0842 0012464 279.9170  80.0642 14.92219802  1514"
      },
      "geometry": {
        "type": "Point",
        "coordinates": [
          -91.44723292896381,
          3.8196503827001735
        ]
      }
    },
    {
      "type": "Feature",
      "properties": {
        "norad_id": 66657,
        "name": "SPIRONE",
        "group": "last-30-days",
        "lat": 10.87491811029173,
        "lon": -92.42130450344173,
        "alt_km": 590.0515970740234,
        "timestamp": "2025-12-07T18:50:15.515622+00:00",
        "meta_object_name": "SPIRONE",
        "meta_object_id": "2025-274H",
        "meta_epoch": "2025-12-07T05:54:55.980000",
        "meta_mean_motion": 14.92402984,
        "meta_eccentricity": 0.00109914,
        "meta_inclination": 97.7389,
        "meta_ra_of_asc_node": 268.5467,
        "meta_arg_of_pericenter": 297.1629,
        "meta_mean_anomaly": 62.8469,
        "meta_ephemeris_type": 0,
        "meta_classification_type": "U",
        "meta_norad_cat_id": 66657,
        "meta_element_set_no": 999,
        "meta_rev_at_epoch": 158,
        "meta_bstar": 0.00045516901,
        "meta_mean_motion_dot": 4.61e-05,
        "meta_mean_motion_ddot": 0,
        "tle_line1": "1 66657U 25274H   25341.24648125  .00004610  00000+0  45517-3 0  9992",
        "tle_line2": "2 66657  97.7389 268.5467 0010991 297.1629  62.8469 14.92402984  1581"
      },
      "geometry": {
        "type": "Point",
        "coordinates": [
          -92.42130450344173,
          10.87491811029173
        ]
      }
    },
    {
      "type": "Feature",
      "properties": {
        "norad_id": 66658,
        "name": "2025-274J",
        "group": "last-30-days",
        "lat": 17.80955770937305,
        "lon": -93.42509846823751,
        "alt_km": 588.8854391753684,
        "timestamp": "2025-12-07T18:50:15.515633+00:00",
        "meta_object_name": "2025-274J",
        "meta_object_id": "2025-274J",
        "meta_epoch": "2025-12-07T01:03:32.166720",
        "meta_mean_motion": 14.92574092,
        "meta_eccentricity": 0.00115541,
        "meta_inclination": 97.7391,
        "meta_ra_of_asc_node": 268.3507,
        "meta_arg_of_pericenter": 300.9885,
        "meta_mean_anomaly": 59.0198,
        "meta_ephemeris_type": 0,
        "meta_classification_type": "U",
        "meta_norad_cat_id": 66658,
        "meta_element_set_no": 999,
        "meta_rev_at_epoch": 155,
        "meta_bstar": 0.00042181328,
        "meta_mean_motion_dot": 4.287e-05,
        "meta_mean_motion_ddot": 0,
        "tle_line1": "1 66658U 25274J   25341.04412230  .00004287  00000+0  42181-3 0  9991",
        "tle_line2": "2 66658  97.7391 268.3507 0011554 300.9885  59.0198 14.92574092  1555"
      },
      "geometry": {
        "type": "Point",
        "coordinates": [
          -93.42509846823751,
          17.80955770937305
        ]
      }
    },
    {
      "type": "Feature",
      "properties": {
        "norad_id": 66659,
        "name": "JACK K",
        "group": "last-30-days",
        "lat": 25.167324737868807,
        "lon": -94.58137672682885,
        "alt_km": 588.0130666303139,
        "timestamp": "2025-12-07T18:50:15.515643+00:00",
        "meta_object_name": "JACK K",
        "meta_object_id": "2025-274K",
        "meta_epoch": "2025-12-07T04:14:43.714176",
        "meta_mean_motion": 14.9276137,
        "meta_eccentricity": 0.00122748,
        "meta_inclination": 97.7392,
        "meta_ra_of_asc_node": 268.4845,
        "meta_arg_of_pericenter": 301.4401,
        "meta_mean_anomaly": 58.5618,
        "meta_ephemeris_type": 0,
        "meta_classification_type": "U",
        "meta_norad_cat_id": 66659,
        "meta_element_set_no": 999,
        "meta_rev_at_epoch": 157,
        "meta_bstar": 0.0004252897,
        "meta_mean_motion_dot": 4.344e-05,
        "meta_mean_motion_ddot": 0,
        "tle_line1": "1 66659U 25274K   25341.17689484  .00004344  00000+0  42529-3 0  9993",
        "tle_line2": "2 66659  97.7392 268.4845 0012274 301.4401  58.5618 14.92761370  1573"
      },
      "geometry": {
        "type": "Point",
        "coordinates": [
          -94.58137672682885,
          25.167324737868807
        ]
      }
    },
    {
      "type": "Feature",
      "properties": {
        "norad_id": 66660,
        "name": "K-HERO",
        "group": "last-30-days",
        "lat": 31.073617654544996,
        "lon": -95.61568368864368,
        "alt_km": 587.3900525176941,
        "timestamp": "2025-12-07T18:50:15.515653+00:00",
        "meta_object_name": "K-HERO",
        "meta_object_id": "2025-274L",
        "meta_epoch": "2025-12-07T01:00:11.088000",
        "meta_mean_motion": 14.92908997,
        "meta_eccentricity": 0.0012933,
        "meta_inclination": 97.7396,
        "meta_ra_of_asc_node": 268.3545,
        "meta_arg_of_pericenter": 302.6288,
        "meta_mean_anomaly": 57.3682,
        "meta_ephemeris_type": 0,
        "meta_classification_type": "U",
        "meta_norad_cat_id": 66660,
        "meta_element_set_no": 999,
        "meta_rev_at_epoch": 155,
        "meta_bstar": 0.00042987493,
        "meta_mean_motion_dot": 4.409e-05,
        "meta_mean_motion_ddot": 0,
        "tle_line1": "1 66660U 25274L   25341.04179500  .00004409  00000+0  42987-3 0  9994",
        "tle_line2": "2 66660  97.7396 268.3545 0012933 302.6288  57.3682 14.92908997  1557"
      },
      "geometry": {
        "type": "Point",
        "coordinates": [
          -95.61568368864368,
          31.073617654544996
        ]
      }
    },
    {
      "type": "Feature",
      "properties": {
        "norad_id": 66661,
        "name": "SNUGLITE-III",
        "group": "last-30-days",
        "lat": 37.10319696449958,
        "lon": -96.81670818740442,
        "alt_km": 586.7995554320032,
        "timestamp": "2025-12-07T18:50:15.515662+00:00",
        "meta_object_name": "SNUGLITE-III",
        "meta_object_id": "2025-274M",
        "meta_epoch": "2025-12-06T18:32:37.955328",
        "meta_mean_motion": 14.93056475,
        "meta_eccentricity": 0.00135238,
        "meta_inclination": 97.7395,
        "meta_ra_of_asc_node": 268.0919,
        "meta_arg_of_pericenter": 304.5866,
        "meta_mean_anomaly": 55.4077,
        "meta_ephemeris_type": 0,
        "meta_classification_type": "U",
        "meta_norad_cat_id": 66661,
        "meta_element_set_no": 999,
        "meta_rev_at_epoch": 151,
        "meta_bstar": 0.00043653793,
        "meta_mean_motion_dot": 4.496e-05,
        "meta_mean_motion_ddot": 0,
        "tle_line1": "1 66661U 25274M   25340.77266152  .00004496  00000+0  43654-3 0  9992",
        "tle_line2": "2 66661  97.7395 268.0919 0013523 304.5866  55.4077 14.93056475  1517"
      },
      "geometry": {
        "type": "Point",
        "coordinates": [
          -96.81670818740442,
          37.10319696449958
        ]
      }
    },
    {
      "type": "Feature",
      "properties": {
        "norad_id": 66662,
        "name": "2025-274N",
        "group": "last-30-days",
        "lat": 39.539850740704736,
        "lon": -97.35727000690075,
        "alt_km": 586.8571011154891,
        "timestamp": "2025-12-07T18:50:15.515672+00:00",
        "meta_object_name": "2025-274N",
        "meta_object_id": "2025-274N",
        "meta_epoch": "2025-12-06T18:32:00.890592",
        "meta_mean_motion": 14.93103897,
        "meta_eccentricity": 0.00140226,
        "meta_inclination": 97.7392,
        "meta_ra_of_asc_node": 268.0924,
        "meta_arg_of_pericenter": 303.873,
        "meta_mean_anomaly": 56.1155,
        "meta_ephemeris_type": 0,
        "meta_classification_type": "U",
        "meta_norad_cat_id": 66662,
        "meta_element_set_no": 999,
        "meta_rev_at_epoch": 151,
        "meta_bstar": 0.00028819991,
        "meta_mean_motion_dot": 2.952e-05,
        "meta_mean_motion_ddot": 0,
        "tle_line1": "1 66662U 25274N   25340.77223253  .00002952  00000+0  28820-3 0  9991",
        "tle_line2": "2 66662  97.7392 268.0924 0014022 303.8730  56.1155 14.93103897  1514"
      },
      "geometry": {
        "type": "Point",
        "coordinates": [
          -97.35727000690075,
          39.539850740704736
        ]
      }
    }
  ]
}